{
  "type": "FeatureCollection",
  "features": [
    {
      "type": "Feature",
      "properties": {
        "norad_id": 34722,
        "name": "COSMOS 2251 DEB",
        "group": "cosmos-2251-debris",
        "lat": -57.58831708519143,
        "lon": -169.81803934611435,
        "alt_km": 752.1232479887649,
        "timestamp": "2025-12-08T19:31:49.202220+00:00",
        "meta_object_name": "COSMOS 2251 DEB",
        "meta_object_id": "1993-036YQ",
        "meta_epoch": "2025-12-08T01:39:18.911232",
        "meta_mean_motion": 14.11910631,
        "meta_eccentricity": 0.0167316,
        "meta_inclination": 73.8726,
        "meta_ra_of_asc_node": 344.3987,
        "meta_arg_of_pericenter": 270.7554,
        "meta_mean_anomaly": 147.3377,
        "meta_ephemeris_type": 0,
        "meta_classification_type": "U",
        "meta_norad_cat_id": 34722,
        "meta_element_set_no": 999,
        "meta_rev_at_epoch": 86179,
        "meta_bstar": 0.0012190185,
        "meta_mean_motion_dot": 2.515e-05,
        "meta_mean_motion_ddot": 0,
        "tle_line1": "1 34722U 93036YQ  25342.06896888  .00002515  00000+0  12190-2 0  9995",
        "tle_line2": "2 34722  73.8726 344.3987 0167316 270.7554 147.3377 14.11910631861795"
      },
      "geometry": {
        "type": "Point",
        "coordinates": [
          -169.81803934611435,
          -57.58831708519143
        ]
      }
    },
    {
      "type": "Feature",
      "properties": {
        "norad_id": 34726,
        "name": "COSMOS 2251 DEB",
        "group": "cosmos-2251-debris",
        "lat": -38.91245851131937,
        "lon": -19.55317766380119,
        "alt_km": 730.7036956389775,
        "timestamp": "2025-12-08T19:31:49.202229+00:00",
        "meta_object_name": "COSMOS 2251 DEB",
        "meta_object_id": "1993-036YU",
        "meta_epoch": "2025-12-08T03:16:01.526592",
        "meta_mean_motion": 14.59454696,
        "meta_eccentricity": 0.00422217,
        "meta_inclination": 74.0291,
        "meta_ra_of_asc_node": 355.1057,
        "meta_arg_of_pericenter": 147.3726,
        "meta_mean_anomaly": 213.0062,
        "meta_ephemeris_type": 0,
        "meta_classification_type": "U",
        "meta_norad_cat_id": 34726,
        "meta_element_set_no": 999,
        "meta_rev_at_epoch": 88435,
        "meta_bstar": 0.00055475228,
        "meta_mean_motion_dot": 2.634e-05,
        "meta_mean_motion_ddot": 0,
        "tle_line1": "1 34726U 93036YU  25342.13612878  .00002634  00000+0  55475-3 0  9998",
        "tle_line2": "2 34726  74.0291 355.1057 0042221 147.3726 213.0062 14.59454696884359"
      },
      "geometry": {
        "type": "Point",
        "coordinates": [
          -19.55317766380119,
          -38.91245851131937
        ]
      }
    },
    {
      "type": "Feature",
      "properties": {
        "norad_id": 34728,
        "name": "COSMOS 2251 DEB",
        "group": "cosmos-2251-debris",
        "lat": 35.14293921528055,
        "lon": -88.9600857716112,
        "alt_km": 628.9044115085871,
        "timestamp": "2025-12-08T19:31:49.202238+00:00",
        "meta_object_name": "COSMOS 2251 DEB",
        "meta_object_id": "1993-036YW",
        "meta_epoch": "2025-12-08T04:40:21.187488",
        "meta_mean_motion": 14.70775682,
        "meta_eccentricity": 0.00410887,
        "meta_inclination": 74.018,
        "meta_ra_of_asc_node": 260.6035,
        "meta_arg_of_pericenter": 59.4394,
        "meta_mean_anomaly": 301.0821,
        "meta_ephemeris_type": 0,
        "meta_classification_type": "U",
        "meta_norad_cat_id": 34728,
        "meta_element_set_no": 999,
        "meta_rev_at_epoch": 88733,
        "meta_bstar": 0.0011226976,
        "meta_mean_motion_dot": 6.918e-05,
        "meta_mean_motion_ddot": 0,
        "tle_line1": "1 34728U 93036YW  25342.19468967  .00006918  00000+0  11227-2 0  9999",
        "tle_line2": "2 34728  74.0180 260.6035 0041088  59.4394 301.0821 14.70775682887334"
      },
      "geometry": {
        "type": "Point",
        "coordinates": [
          -88.9600857716112,
          35.14293921528055
        ]
      }
    },
    {
      "type": "Feature",
      "properties": {
        "norad_id": 34729,
        "name": "COSMOS 2251 DEB",
        "group": "cosmos-2251-debris",
        "lat": -58.83529796586267,
        "lon": -145.50778074731403,
        "alt_km": 631.3452161470277,
        "timestamp": "2025-12-08T19:31:49.202247+00:00",
        "meta_object_name": "COSMOS 2251 DEB",
        "meta_object_id": "1993-036YX",
        "meta_epoch": "2025-12-08T06:02:24.235296",
        "meta_mean_motion": 14.82599836,
        "meta_eccentricity": 0.00119063,
        "meta_inclination": 74.0182,
        "meta_ra_of_asc_node": 7.318,
        "meta_arg_of_pericenter": 129.1596,
        "meta_mean_anomaly": 354.6856,
        "meta_ephemeris_type": 0,
        "meta_classification_type": "U",
        "meta_norad_cat_id": 34729,
        "meta_element_set_no": 999,
        "meta_rev_at_epoch": 88391,
        "meta_bstar": 0.002089166,
        "meta_mean_motion_dot": 0.00016847,
        "meta_mean_motion_ddot": 0,
        "tle_line1": "1 34729U 93036YX  25342.25166939  .00016847  00000+0  20892-2 0  9991",
        "tle_line2": "2 34729  74.0182   7.3180 0011906 129.1596 354.6856 14.82599836883919"
      },
      "geometry": {
        "type": "Point",
        "coordinates": [
          -145.50778074731403,
          -58.83529796586267
        ]
      }
    },
    {
      "type": "Feature",
      "properties": {
        "norad_id": 34732,
        "name": "COSMOS 2251 DEB",
        "group": "cosmos-2251-debris",
        "lat": -63.629118507169984,
        "lon": -44.234525395549554,
        "alt_km": 712.6239155025678,
        "timestamp": "2025-12-08T19:31:49.202256+00:00",
        "meta_object_name": "COSMOS 2251 DEB",
        "meta_object_id": "1993-036ZA",
        "meta_epoch": "2025-12-08T02:37:41.135232",
        "meta_mean_motion": 14.47291723,
        "meta_eccentricity": 0.00404623,
        "meta_inclination": 74.0449,
        "meta_ra_of_asc_node": 101.8377,
        "meta_arg_of_pericenter": 253.7205,
        "meta_mean_anomaly": 287.1114,
        "meta_ephemeris_type": 0,
        "meta_classification_type": "U",
        "meta_norad_cat_id": 34732,
        "meta_element_set_no": 999,
        "meta_rev_at_epoch": 88076,
        "meta_bstar": 0.0002544242,
        "meta_mean_motion_dot": 9.13e-06,
        "meta_mean_motion_ddot": 0,
        "tle_line1": "1 34732U 93036ZA  25342.10950388  .00000913  00000+0  25442-3 0  9992",
        "tle_line2": "2 34732  74.0449 101.8377 0040462 253.7205 287.1114 14.47291723880769"
      },
      "geometry": {
        "type": "Point",
        "coordinates": [
          -44.234525395549554,
          -63.629118507169984
        ]
      }
    },
    {
      "type": "Feature",
      "properties": {
        "norad_id": 34736,
        "name": "COSMOS 2251 DEB",
        "group": "cosmos-2251-debris",
        "lat": 62.57406373830618,
        "lon": 78.36906853170599,
        "alt_km": 426.30470162223537,
        "timestamp": "2025-12-08T19:31:49.202265+00:00",
        "meta_object_name": "COSMOS 2251 DEB",
        "meta_object_id": "1993-036ZE",
        "meta_epoch": "2025-12-08T06:47:44.876256",
        "meta_mean_motion": 15.43371361,
        "meta_eccentricity": 0.00168782,
        "meta_inclination": 74.0024,
        "meta_ra_of_asc_node": 45.9588,
        "meta_arg_of_pericenter": 350.2991,
        "meta_mean_anomaly": 9.789,
        "meta_ephemeris_type": 0,
        "meta_classification_type": "U",
        "meta_norad_cat_id": 34736,
        "meta_element_set_no": 999,
        "meta_rev_at_epoch": 88379,
        "meta_bstar": 0.0083104259,
        "meta_mean_motion_dot": 0.00391997,
        "meta_mean_motion_ddot": 0,
        "tle_line1": "1 34736U 93036ZE  25342.28315829  .00391997  00000+0  83104-2 0  9993",
        "tle_line2": "2 34736  74.0024  45.9588 0016878 350.2991   9.7890 15.43371361883792"
      },
      "geometry": {
        "type": "Point",
        "coordinates": [
          78.36906853170599,
          62.57406373830618
        ]
      }
    },
    {
      "type": "Feature",
      "properties": {
        "norad_id": 34738,
        "name": "COSMOS 2251 DEB",
        "group": "cosmos-2251-debris",
        "lat": -60.577966801816586,
        "lon": 120.05390908461314,
        "alt_km": 710.9777200259714,
        "timestamp": "2025-12-08T19:31:49.202274+00:00",
        "meta_object_name": "COSMOS 2251 DEB",
        "meta_object_id": "1993-036ZG",
        "meta_epoch": "2025-12-08T05:43:18.100416",
        "meta_mean_motion": 14.46286671,
        "meta_eccentricity": 0.00472751,
        "meta_inclination": 74.0142,
        "meta_ra_of_asc_node": 151.6789,
        "meta_arg_of_pericenter": 298.7815,
        "meta_mean_anomaly": 241.8468,
        "meta_ephemeris_type": 0,
        "meta_classification_type": "U",
        "meta_norad_cat_id": 34738,
        "meta_element_set_no": 999,
        "meta_rev_at_epoch": 87793,
        "meta_bstar": 0.0005820075,
        "meta_mean_motion_dot": 2.087e-05,
        "meta_mean_motion_ddot": 0,
        "tle_line1": "1 34738U 93036ZG  25342.23840394  .00002087  00000+0  58201-3 0  9990",
        "tle_line2": "2 34738  74.0142 151.6789 0047275 298.7815 241.8468 14.46286671877939"
      },
      "geometry": {
        "type": "Point",
        "coordinates": [
          120.05390908461314,
          -60.577966801816586
        ]
      }
    }
  ]
}